[
    {
        "Altitude(m)": 566487.8159843363,
        "Argument of Periapsis(deg)": 0.0,
        "Eccentricity": 0.0,
        "Inclination(deg)": 97.0,
        "Latitude(deg)": 24.658108536305694,
        "Longitude(deg)": -103.18283151828466,
        "Mean Anomaly(deg)": 24.8276,
        "RAAN(deg)": 0.0,
        "Satellite Name": "Starlink Shell 3 1588",
        "Satellite Number": 1588,
        "Semi-Major Axis(m)": 6938478.169268562,
        "Time(s)": 0
    },
    {
        "Altitude(m)": 566565.1774832115,
        "Argument of Periapsis(deg)": -0.0003965466804030246,
        "Eccentricity": 0.0,
        "Inclination(deg)": 97.0,
        "Latitude(deg)": 25.280643321504268,
        "Longitude(deg)": -103.31716271208835,
        "Mean Anomaly(deg)": 25.45307619770504,
        "RAAN(deg)": 0.00010433427400896087,
        "Satellite Name": "Starlink Shell 3 1588",
        "Satellite Number": 1588,
        "Semi-Major Axis(m)": 6938478.169268562,
        "Time(s)": 10
    },
    {
        "Altitude(m)": 566645.6276118287,
        "Argument of Periapsis(deg)": -0.0007930933608060492,
        "Eccentricity": 0.0,
        "Inclination(deg)": 97.0,
        "Latitude(deg)": 25.903066149283195,
        "Longitude(deg)": -103.45244164804662,
        "Mean Anomaly(deg)": 26.07855239541009,
        "RAAN(deg)": 0.00020866854801792175,
        "Satellite Name": "Starlink Shell 3 1588",
        "Satellite Number": 1588,
        "Semi-Major Axis(m)": 6938478.169268562,
        "Time(s)": 20
    },
    {
        "Altitude(m)": 566729.1012566726,
        "Argument of Periapsis(deg)": -0.001189640041209074,
        "Eccentricity": 0.0,
        "Inclination(deg)": 97.0,
        "Latitude(deg)": 26.525373521523452,
        "Longitude(deg)": -103.58870526510718,
        "Mean Anomaly(deg)": 26.70402859311513,
        "RAAN(deg)": 0.0003130028220268826,
        "Satellite Name": "Starlink Shell 3 1588",
        "Satellite Number": 1588,
        "Semi-Major Axis(m)": 6938478.169268562,
        "Time(s)": 30
    },
    {
        "Altitude(m)": 566815.5320008448,
        "Argument of Periapsis(deg)": -0.0015861867216120985,
        "Eccentricity": 0.0,
        "Inclination(deg)": 97.0,
        "Latitude(deg)": 27.147561896064182,
        "Longitude(deg)": -103.72599122928726,
        "Mean Anomaly(deg)": 27.329504790820174,
        "RAAN(deg)": 0.0004173370960358435,
        "Satellite Name": "Starlink Shell 3 1588",
        "Satellite Number": 1588,
        "Semi-Major Axis(m)": 6938478.169268562,
        "Time(s)": 40
    },
    {
        "Altitude(m)": 566904.8521601605,
        "Argument of Periapsis(deg)": -0.0019827334020151234,
        "Eccentricity": 0.0,
        "Inclination(deg)": 97.0,
        "Latitude(deg)": 27.769627683177635,
        "Longitude(deg)": -103.8643390079171,
        "Mean Anomaly(deg)": 27.95498098852522,
        "RAAN(deg)": 0.0005216713700448044,
        "Satellite Name": "Starlink Shell 3 1588",
        "Satellite Number": 1588,
        "Semi-Major Axis(m)": 6938478.169268562,
        "Time(s)": 50
    },
    {
        "Altitude(m)": 566996.992819875,
        "Argument of Periapsis(deg)": -0.002379280082418148,
        "Eccentricity": 0.0,
        "Inclination(deg)": 97.0,
        "Latitude(deg)": 28.391567241792163,
        "Longitude(deg)": -104.00378943473737,
        "Mean Anomaly(deg)": 28.580457186230262,
        "RAAN(deg)": 0.0006260056440537652,
        "Satellite Name": "Starlink Shell 3 1588",
        "Satellite Number": 1588,
        "Semi-Major Axis(m)": 6938478.169268562,
        "Time(s)": 60
    },
    {
        "Altitude(m)": 567091.8838719266,
        "Argument of Periapsis(deg)": -0.002775826762821173,
        "Eccentricity": 0.0,
        "Inclination(deg)": 97.0,
        "Latitude(deg)": 29.013376875447214,
        "Longitude(deg)": -104.14438427898732,
        "Mean Anomaly(deg)": 29.205933383935303,
        "RAAN(deg)": 0.0007303399180627261,
        "Satellite Name": "Starlink Shell 3 1588",
        "Satellite Number": 1588,
        "Semi-Major Axis(m)": 6938478.169268562,
        "Time(s)": 70
    },
    {
        "Altitude(m)": 567189.4540527464,
        "Argument of Periapsis(deg)": -0.003172373443224197,
        "Eccentricity": 0.0,
        "Inclination(deg)": 97.0,
        "Latitude(deg)": 29.635052827962976,
        "Longitude(deg)": -104.2861673316412,
        "Mean Anomaly(deg)": 29.83140958164035,
        "RAAN(deg)": 0.000834674192071687,
        "Satellite Name": "Starlink Shell 3 1588",
        "Satellite Number": 1588,
        "Semi-Major Axis(m)": 6938478.169268562,
        "Time(s)": 80
    },
    {
        "Altitude(m)": 567289.6309815745,
        "Argument of Periapsis(deg)": -0.0035689201236272223,
        "Eccentricity": 0.0,
        "Inclination(deg)": 97.0,
        "Latitude(deg)": 30.25659127880303,
        "Longitude(deg)": -104.42918398335871,
        "Mean Anomaly(deg)": 30.45688577934539,
        "RAAN(deg)": 0.0009390084660806479,
        "Satellite Name": "Starlink Shell 3 1588",
        "Satellite Number": 1588,
        "Semi-Major Axis(m)": 6938478.169268562,
        "Time(s)": 90
    },
    {
        "Altitude(m)": 567392.3411992668,
        "Argument of Periapsis(deg)": -0.003965466804030247,
        "Eccentricity": 0.0,
        "Inclination(deg)": 97.0,
        "Latitude(deg)": 30.877988338109812,
        "Longitude(deg)": -104.57348080735319,
        "Mean Anomaly(deg)": 31.082361977050436,
        "RAAN(deg)": 0.0010433427400896088,
        "Satellite Name": "Starlink Shell 3 1588",
        "Satellite Number": 1588,
        "Semi-Major Axis(m)": 6938478.169268562,
        "Time(s)": 100
    },
    {
        "Altitude(m)": 567497.5102075882,
        "Argument of Periapsis(deg)": -0.004362013484433271,
        "Eccentricity": 0.0,
        "Inclination(deg)": 97.0,
        "Latitude(deg)": 31.499240041390642,
        "Longitude(deg)": -104.71910666041211,
        "Mean Anomaly(deg)": 31.707838174755477,
        "RAAN(deg)": 0.0011476770140985695,
        "Satellite Name": "Starlink Shell 3 1588",
        "Satellite Number": 1588,
        "Semi-Major Axis(m)": 6938478.169268562,
        "Time(s)": 110
    },
    {
        "Altitude(m)": 567605.0625089519,
        "Argument of Periapsis(deg)": -0.004758560164836296,
        "Eccentricity": 0.0,
        "Inclination(deg)": 97.0,
        "Latitude(deg)": 32.120342343827616,
        "Longitude(deg)": -104.8661122767147,
        "Mean Anomaly(deg)": 32.33331437246052,
        "RAAN(deg)": 0.0012520112881075304,
        "Satellite Name": "Starlink Shell 3 1588",
        "Satellite Number": 1588,
        "Semi-Major Axis(m)": 6938478.169268562,
        "Time(s)": 120
    },
    {
        "Altitude(m)": 567714.9216465793,
        "Argument of Periapsis(deg)": -0.005155106845239321,
        "Eccentricity": 0.0,
        "Inclination(deg)": 97.0,
        "Latitude(deg)": 32.74129111418521,
        "Longitude(deg)": -105.01454986774306,
        "Mean Anomaly(deg)": 32.95879057016557,
        "RAAN(deg)": 0.0013563455621164913,
        "Satellite Name": "Starlink Shell 3 1588",
        "Satellite Number": 1588,
        "Semi-Major Axis(m)": 6938478.169268562,
        "Time(s)": 130
    },
    {
        "Altitude(m)": 567827.0102450908,
        "Argument of Periapsis(deg)": -0.005551653525642346,
        "Eccentricity": 0.0,
        "Inclination(deg)": 97.0,
        "Latitude(deg)": 33.3620821282875,
        "Longitude(deg)": -105.16447424161568,
        "Mean Anomaly(deg)": 33.584266767870616,
        "RAAN(deg)": 0.0014606798361254522,
        "Satellite Name": "Starlink Shell 3 1588",
        "Satellite Number": 1588,
        "Semi-Major Axis(m)": 6938478.169268562,
        "Time(s)": 140
    },
    {
        "Altitude(m)": 567941.2500514665,
        "Argument of Periapsis(deg)": -0.005948200206045371,
        "Eccentricity": 0.0,
        "Inclination(deg)": 97.0,
        "Latitude(deg)": 33.982711062031015,
        "Longitude(deg)": -105.31594241659843,
        "Mean Anomaly(deg)": 34.20974296557565,
        "RAAN(deg)": 0.0015650141101344129,
        "Satellite Name": "Starlink Shell 3 1588",
        "Satellite Number": 1588,
        "Semi-Major Axis(m)": 6938478.169268562,
        "Time(s)": 150
    },
    {
        "Altitude(m)": 568057.5619763739,
        "Argument of Periapsis(deg)": -0.006344746886448394,
        "Eccentricity": 0.0,
        "Inclination(deg)": 97.0,
        "Latitude(deg)": 34.60317348390013,
        "Longitude(deg)": -105.4690132422042,
        "Mean Anomaly(deg)": 34.8352191632807,
        "RAAN(deg)": 0.001669348384143374,
        "Satellite Name": "Starlink Shell 3 1588",
        "Satellite Number": 1588,
        "Semi-Major Axis(m)": 6938478.169268562,
        "Time(s)": 160
    },
    {
        "Altitude(m)": 568175.8661358467,
        "Argument of Periapsis(deg)": -0.00674129356685142,
        "Eccentricity": 0.0,
        "Inclination(deg)": 97.0,
        "Latitude(deg)": 35.22346484694784,
        "Longitude(deg)": -105.62374854134097,
        "Mean Anomaly(deg)": 35.46069536098574,
        "RAAN(deg)": 0.001773682658152335,
        "Satellite Name": "Starlink Shell 3 1588",
        "Satellite Number": 1588,
        "Semi-Major Axis(m)": 6938478.169268562,
        "Time(s)": 170
    },
    {
        "Altitude(m)": 568296.0818932747,
        "Argument of Periapsis(deg)": -0.007137840247254445,
        "Eccentricity": 0.0,
        "Inclination(deg)": 97.0,
        "Latitude(deg)": 35.84358048019976,
        "Longitude(deg)": -105.78021274840324,
        "Mean Anomaly(deg)": 36.086171558690786,
        "RAAN(deg)": 0.0018780169321612958,
        "Satellite Name": "Starlink Shell 3 1588",
        "Satellite Number": 1588,
        "Semi-Major Axis(m)": 6938478.169268562,
        "Time(s)": 180
    }
]